NORAD_CAT_ID,OBJECT_NAME,OBJECT_TYPE,EPOCH,MEAN_MOTION,ECCENTRICITY,INCLINATION,RA_OF_ASC_NODE,ARG_OF_PERICENTER,MEAN_ANOMALY,BSTAR,MEAN_MOTION_DOT,MEAN_MOTION_DDOT,TLE_LINE0,TLE_LINE1,TLE_LINE2,SEMIMAJOR_AXIS,PERIOD,APOGEE,PERIGEE,DECAYED
52373.0,STARLINK-3550,PAYLOAD,2022-06-07 22:00:00,15.732118,0.000252,53.2138,243.0764,17.4924,92.7065,-0.00021884,-0.00031241,0.0,0 STARLINK-3550,1 52373U 22045AU  22158.91667824 -.00031241  00000-0 -21884-3 0  9993,2 52373  53.2138 243.0764 0002520  17.4924  92.7065 15.73211800  1307,6727.861999999999,91.532,351.422,348.031,0.0
52373.0,STARLINK-3550,PAYLOAD,2022-06-08 06:00:02,15.73199802,0.000239,53.2139,241.4261,19.5281,179.65200000000004,0.00036683,0.00051179,0.0,0 STARLINK-3550,1 52373U 22045AU  22159.25002315  .00051179  00000-0  36683-3 0  9992,2 52373  53.2139 241.4261 0002390  19.5281 179.6520 15.73199802  8749,6727.896,91.533,351.369,348.153,0.0
52373.0,STARLINK-3550,PAYLOAD,2022-06-08 14:00:01,15.73237791,0.0002681,53.2136,239.7787,17.0542,270.9916,-0.00034887,-0.00049386,0.0,0 STARLINK-3550,1 52373U 22045AU  22159.58334491 -.00049386  00000-0 -34887-3 0  9994,2 52373  53.2136 239.7787 0002681  17.0542 270.9916 15.73237791  8794,6727.7869999999975,91.531,351.456,347.849,0.0
52373.0,STARLINK-3550,PAYLOAD,2022-06-08 22:00:01,15.73202193,0.0002544,53.2134,238.1276,16.4487,0.617,-0.000686,-0.00095836,0.0,0 STARLINK-3550,1 52373U 22045AU  22159.91668981 -.00095836  00000-0 -68600-3 0  9996,2 52373  53.2134 238.1276 0002544  16.4487   0.6170 15.73202193  1305,6727.889,91.533,351.465,348.042,0.0
52373.0,STARLINK-3550,PAYLOAD,2022-06-09 06:00:00,15.73139974,0.0002509,53.2138,236.4775,21.5604,84.3136,0.00023118,0.00031867,0.0,0 STARLINK-3550,1 52373U 22045AU  22160.25001157  .00031867  00000-0  23118-3 0  9998,2 52373  53.2138 236.4775 0002509  21.5604  84.3136 15.73139974  8903,6728.066,91.537,351.619,348.24300000000005,0.0
52373.0,STARLINK-3550,PAYLOAD,2022-06-09 14:00:01,15.73138437,0.0002838,53.214,234.8301,19.3442,175.407,0.00039114,0.00054493,0.0,0 STARLINK-3550,1 52373U 22045AU  22160.58334491  .00054493  00000-0  39114-3 0  9997,2 52373  53.2140 234.8301 0002838  19.3442 175.4070 15.73138437  1302,6728.071,91.537,351.845,348.026,0.0
52373.0,STARLINK-3550,PAYLOAD,2022-06-09 22:00:00,15.73199009,0.0002739,53.2139,233.1791,19.8372,263.8088,6.707100000000001e-05,8.802e-05,0.0,0 STARLINK-3550,1 52373U 22045AU  22160.91667824  .00008802  00000-0  67071-4 0  9990,2 52373  53.2139 233.1791 0002739  19.8372 263.8088 15.73199009  1305,6727.898,91.533,351.606,347.92,0.0
52373.0,STARLINK-3550,PAYLOAD,2022-06-10 08:00:01,15.73231092,0.0002755,53.2138,231.1171,20.9935,103.8026,-4.352e-05,-6.735e-05,0.0,0 STARLINK-3550,1 52373U 22045AU  22161.33334491 -.00006735  00000-0 -43520-4 0  9996,2 52373  53.2138 231.1171 0002755  20.9935 103.8026 15.73231092  9076,6727.807,91.531,351.525,347.8180000000001,0.0
52373.0,STARLINK-3550,PAYLOAD,2022-06-10 14:00:01,15.73241355,0.0002937,53.2136,229.8813,18.257,83.2726,-0.0003662,-0.00051805,0.0,0 STARLINK-3550,1 52373U 22045AU  22161.58334491 -.00051805  00000-0 -36620-3 0  9993,2 52373  53.2136 229.8813 0002937  18.2570  83.2726 15.73241355  1307,6727.776999999999,91.531,351.61800000000005,347.666,0.0
52373.0,STARLINK-3550,PAYLOAD,2022-06-10 22:00:00,15.73193564,0.0002733,53.2134,228.2299,15.7405,174.7594,8.674299999999999e-05,0.00011567,0.0,0 STARLINK-3550,1 52373U 22045AU  22161.91667824  .00011567  00000-0  86743-4 0  9990,2 52373  53.2134 228.2299 0002733  15.7405 174.7594 15.73193564  1306,6727.9140000000025,91.534,351.617,347.94,0.0
52373.0,STARLINK-3550,PAYLOAD,2022-06-11 14:00:01,15.73239219,0.0002926,53.2137,224.9327,13.9344,354.4526,-0.00040761,-0.00057548,0.0,0 STARLINK-3550,1 52373U 22045AU  22162.58334491 -.00057548  00000-0 -40761-3 0  9995,2 52373  53.2137 224.9327 0002926  13.9344 354.4526 15.73239219  9274,6727.783,91.531,351.617,347.68,0.0
52373.0,STARLINK-3550,PAYLOAD,2022-06-11 22:00:00,15.73207541,0.0002805,53.2137,223.2812,12.7507,84.6023,5.4342e-05,7.014e-05,0.0,0 STARLINK-3550,1 52373U 22045AU  22162.91667824  .00007014  00000-0  54342-4 0  9993,2 52373  53.2137 223.2812 0002805  12.7507  84.6023 15.73207541  9322,6727.874,91.533,351.626,347.852,0.0
52373.0,STARLINK-3550,PAYLOAD,2022-06-12 06:00:02,15.73203952,0.0002859,53.2135,221.6317,17.7829,168.5598,-0.00030107,-0.00042679,0.0,0 STARLINK-3550,1 52373U 22045AU  22163.25002315 -.00042679  00000-0 -30107-3 0  9999,2 52373  53.2135 221.6317 0002859  17.7829 168.5598 15.73203952  9379,6727.884,91.533,351.672,347.825,0.0
52373.0,STARLINK-3550,PAYLOAD,2022-06-12 14:00:01,15.72796126,0.0002884,53.2169,219.981,14.9231,260.2885,0.0044975,0.00672057,0.0,0 STARLINK-3550,1 52373U 22045AU  22163.58334491  .00672057  00000-0  44975-2 0  9992,2 52373  53.2169 219.9810 0002884  14.9231 260.2885 15.72796126  9422,6729.047,91.557,352.853,348.971,0.0
52373.0,STARLINK-3550,PAYLOAD,2022-06-12 22:00:00,15.732420800000002,0.0002903,53.2126,218.3325,17.7003,346.4827,-0.00036302,-0.00051364,0.0,0 STARLINK-3550,1 52373U 22045AU  22163.91667824 -.00051364  00000-0 -36302-3 0  9998,2 52373  53.2126 218.3325 0002903  17.7003 346.4827 15.73242080  1307,6727.775,91.531,351.593,347.68699999999984,0.0
52373.0,STARLINK-3550,PAYLOAD,2022-06-13 06:00:02,15.7320552,0.0002889,53.2127,216.683,16.8054,76.3975,0.00010723,0.00014459,0.0,0 STARLINK-3550,1 52373U 22045AU  22164.25002315  .00014459  00000-0  10723-3 0  9995,2 52373  53.2127 216.6830 0002889  16.8054  76.3975 15.73205520  9533,6727.879,91.533,351.68800000000016,347.801,0.0
52373.0,STARLINK-3550,PAYLOAD,2022-06-13 14:00:01,15.7322764,0.0003125,53.2128,215.0353,12.8272,169.2682,-0.00011555,-0.00016831,0.0,0 STARLINK-3550,1 52373U 22045AU  22164.58334491 -.00016831  00000-0 -11555-3 0  9996,2 52373  53.2128 215.0353 0003125  12.8272 169.2682 15.73227640  1300,6727.816,91.532,351.784,347.579,0.0
52373.0,STARLINK-3550,PAYLOAD,2022-06-13 22:00:00,15.73209859,0.0002928,53.2134,213.3831,10.2204,260.8352,-0.00038663,-0.00054569,0.0,0 STARLINK-3550,1 52373U 22045AU  22164.91667824 -.00054569  00000-0 -38663-3 0  9991,2 52373  53.2134 213.3831 0002928  10.2204 260.8352 15.73209859  1300,6727.8669999999975,91.533,351.702,347.76199999999994,0.0
52373.0,STARLINK-3550,PAYLOAD,2022-06-14 06:00:00,15.73196927,0.0002978,53.2138,211.7345,10.0746,349.9185,9.1099e-05,0.00012182,0.0,0 STARLINK-3550,1 52373U 22045AU  22165.25001157  .00012182  00000-0  91099-4 0  9996,2 52373  53.2138 211.7345 0002978  10.0746 349.9185 15.73196927  9683,6727.904,91.533,351.773,347.765,0.0
52373.0,STARLINK-3550,PAYLOAD,2022-06-14 14:00:01,15.73187581,0.0003255,53.2135,210.0866,11.7678,77.1498,-0.00011148,-0.00016235,0.0,0 STARLINK-3550,1 52373U 22045AU  22165.58334491 -.00016235  00000-0 -11148-3 0  9993,2 52373  53.2135 210.0866 0003255  11.7678  77.1498 15.73187581  1305,6727.931,91.534,351.986,347.606,0.0
52373.0,STARLINK-3550,PAYLOAD,2022-06-14 22:00:00,15.73193623,0.0002977,53.2132,208.4349,13.5643,164.2809,-4.7046e-06,-1.283e-05,0.0,0 STARLINK-3550,1 52373U 22045AU  22165.91667824 -.00001283  00000-0 -47046-5 0  9994,2 52373  53.2132 208.4349 0002977  13.5643 164.2809 15.73193623  9790,6727.913000000001,91.534,351.781,347.775,0.0
52373.0,STARLINK-3550,PAYLOAD,2022-06-15 06:00:00,15.73156354,0.0003007,53.2135,206.7861,13.0454,253.6836,5.9995e-05,7.791e-05,0.0,0 STARLINK-3550,1 52373U 22045AU  22166.25001157  .00007791  00000-0  59995-4 0  9996,2 52373  53.2135 206.7861 0003007  13.0454 253.6836 15.73156354  9842,6728.02,91.536,351.908,347.861,0.0
52373.0,STARLINK-3550,PAYLOAD,2022-06-15 14:00:01,15.73170033,0.0003271,53.2133,205.1381,9.7622,345.8478,8.684799999999999e-05,0.0001157,0.0,0 STARLINK-3550,1 52373U 22045AU  22166.58334491  .00011570  00000-0  86848-4 0  9999,2 52373  53.2133 205.1381 0003271   9.7622 345.8478 15.73170033  1301,6727.981,91.535,352.046,347.645,0.0
52373.0,STARLINK-3550,PAYLOAD,2022-06-15 22:00:00,15.73143938,0.0002999,53.2135,203.4864,8.6022,75.9442,0.0004706,0.00065795,0.0,0 STARLINK-3550,1 52373U 22045AU  22166.91667824  .00065795  00000-0  47060-3 0  9995,2 52373  53.2135 203.4864 0002999   8.6022  75.9442 15.73143938  1304,6728.055,91.536,351.93800000000016,347.902,0.0
52373.0,STARLINK-3550,PAYLOAD,2022-06-16 02:00:01,15.73160723,0.0003012,53.2136,202.6613,10.5699,298.4114,0.00053402,0.00074881,0.0,0 STARLINK-3550,1 52373U 22045AU  22167.08334491  .00074881  00000-0  53402-3 0  9998,2 52373  53.2136 202.6613 0003012  10.5699 298.4114 15.73160723  1306,6728.007,91.535,351.899,347.846,0.0
52373.0,STARLINK-3550,PAYLOAD,2022-06-19 14:00:01,15.7323548,0.0003361,53.2136,185.3426,6.9407,335.8952,-0.00039146,-0.00055304,0.0,0 STARLINK-3550,1 52373U 22045AU  22170.58334491 -.00055304  00000-0 -39146-3 0  9997,2 52373  53.2136 185.3426 0003361   6.9407 335.8952 15.73235480  1307,6727.794,91.531,351.92,347.398,0.0
52373.0,STARLINK-3550,PAYLOAD,2022-06-19 20:00:01,15.73178677,0.0003156,53.2141,184.1038,9.809,309.7506,-5.0358e-05,-7.679e-05,0.0,0 STARLINK-3550,1 52373U 22045AU  22170.83334491 -.00007679  00000-0 -50358-4 0  9996,2 52373  53.2141 184.1038 0003156   9.8090 309.7506 15.73178677 10568,6727.956,91.534,351.944,347.6980000000001,0.0
52373.0,STARLINK-3550,PAYLOAD,2022-06-19 22:00:00,15.73146771,0.0003128,53.214,183.691,10.649,61.1468,0.00041429,0.00057801,0.0,0 STARLINK-3550,1 52373U 22045AU  22170.91667824  .00057801  00000-0  41429-3 0  9992,2 52373  53.2140 183.6910 0003128  10.6490  61.1468 15.73146771  1301,6728.047,91.536,352.016,347.807,0.0
52373.0,STARLINK-3550,PAYLOAD,2022-06-20 12:00:00,15.73204419,0.0003435,53.2136,180.8068,11.6339,125.7395,-6.65e-05,-9.95e-05,0.0,0 STARLINK-3550,1 52373U 22045AU  22171.50001157 -.00009950  00000-0 -66500-4 0  9991,2 52373  53.2136 180.8068 0003435  11.6339 125.7395 15.73204419 10673,6727.8830000000025,91.533,352.059,347.43699999999984,0.0
